CTC2_L_00222001-01
1 83727U 24045IE  26070.40844907  .00000000  00000+0  00000-0 0  9992
2 83727 100.0000   0.0000 0000000   0.0000   0.0000 14.33516687    15
CTC2_L_00222001-02
1 83728U 22784JJ  26070.40844907  .00000000  00000+0  00000-0 0  9991
2 83728 100.0000   0.0000 0000000   0.0000  90.0000 14.33516687    15
CTC2_L_00222001-03
1 83729U 22229OQ  26070.40844907  .00000000  00000+0  00000-0 0  9996
2 83729 100.0000   0.0000 0000000   0.0000 180.0000 14.33516687    16
CTC2_L_00222001-04
1 83730U 24389EO  26070.40844907  .00000000  00000+0  00000-0 0  9997
2 83730 100.0000   0.0000 0000000   0.0000 270.0000 14.33516687    18
CTC2_L_00222002-01
1 83731U 24525RI  26070.40844907  .00000000  00000+0  00000-0 0  9990
2 83731 100.0000  12.0000 0000000   0.0000  12.0000 14.33516687    16
CTC2_L_00222002-02
1 83732U 23123Q   26070.40844907  .00000000  00000+0  00000-0 0  9994
2 83732 100.0000  12.0000 0000000   0.0000 102.0000 14.33516687    17
CTC2_L_00222002-03
1 83733U 23315KY  26070.40844907  .00000000  00000+0  00000-0 0  9998
2 83733 100.0000  12.0000 0000000   0.0000 192.0000 14.33516687    17
CTC2_L_00222002-04
1 83734U 25783UT  26070.40844907  .00000000  00000+0  00000-0 0  9990
2 83734 100.0000  12.0000 0000000   0.0000 282.0000 14.33516687    18
CTC2_L_00222003-01
1 83735U 22733QS  26070.40844907  .00000000  00000+0  00000-0 0  9993
2 83735 100.0000  24.0000 0000000   0.0000  24.0000 14.33516687    16
CTC2_L_00222003-02
1 83736U 22508UO  26070.40844907  .00000000  00000+0  00000-0 0  9994
2 83736 100.0000  24.0000 0000000   0.0000 114.0000 14.33516687    17
CTC2_L_00222003-03
1 83737U 22651QL  26070.40844907  .00000000  00000+0  00000-0 0  9994
2 83737 100.0000  24.0000 0000000   0.0000 204.0000 14.33516687    18
CTC2_L_00222003-04
1 83738U 23769CU  26070.40844907  .00000000  00000+0  00000-0 0  9996
2 83738 100.0000  24.0000 0000000   0.0000 294.0000 14.33516687    18
CTC2_L_00222004-01
1 83739U 23850LA  26070.40844907  .00000000  00000+0  00000-0 0  9998
2 83739 100.0000  36.0000 0000000   0.0000  36.0000 14.33516687    16
CTC2_L_00222004-02
1 83740U 25756UF  26070.40844907  .00000000  00000+0  00000-0 0  9997
2 83740 100.0000  36.0000 0000000   0.0000 126.0000 14.33516687    18
CTC2_L_00222004-03
1 83741U 25663KZ  26070.40844907  .00000000  00000+0  00000-0 0  9995
2 83741 100.0000  36.0000 0000000   0.0000 216.0000 14.33516687    19
CTC2_L_00222004-04
1 83742U 24950SH  26070.40844907  .00000000  00000+0  00000-0 0  9994
2 83742 100.0000  36.0000 0000000   0.0000 306.0000 14.33516687    10
CTC2_L_00222005-01
1 83743U 26799VR  26070.40844907  .00000000  00000+0  00000-0 0  9998
2 83743 100.0000  48.0000 0000000   0.0000  48.0000 14.33516687    17
CTC2_L_00222005-02
1 83744U 26417ZT  26070.40844907  .00000000  00000+0  00000-0 0  9996
2 83744 100.0000  48.0000 0000000   0.0000 138.0000 14.33516687    18
CTC2_L_00222005-03
1 83745U 22094AX  26070.40844907  .00000000  00000+0  00000-0 0  9994
2 83745 100.0000  48.0000 0000000   0.0000 228.0000 14.33516687    19
CTC2_L_00222005-04
1 83746U 25831CW  26070.40844907  .00000000  00000+0  00000-0 0  9997
2 83746 100.0000  48.0000 0000000   0.0000 318.0000 14.33516687    10
CTC2_L_00222006-01
1 83747U 25192OG  26070.40844907  .00000000  00000+0  00000-0 0  9998
2 83747 100.0000  60.0000 0000000   0.0000  60.0000 14.33516687    19
CTC2_L_00222006-02
1 83748U 22376IS  26070.40844907  .00000000  00000+0  00000-0 0  9990
2 83748 100.0000  60.0000 0000000   0.0000 150.0000 14.33516687    10
CTC2_L_00222006-03
1 83749U 25282MT  26070.40844907  .00000000  00000+0  00000-0 0  9990
2 83749 100.0000  60.0000 0000000   0.0000 240.0000 14.33516687    11
CTC2_L_00222006-04
1 83750U 25890TL  26070.40844907  .00000000  00000+0  00000-0 0  9997
2 83750 100.0000  60.0000 0000000   0.0000 330.0000 14.33516687    13
CTC2_L_00222007-01
1 83751U 26645TP  26070.40844907  .00000000  00000+0  00000-0 0  9997
2 83751 100.0000  72.0000 0000000   0.0000  72.0000 14.33516687    10
CTC2_L_00222007-02
1 83752U 22534FA  26070.40844907  .00000000  00000+0  00000-0 0  9991
2 83752 100.0000  72.0000 0000000   0.0000 162.0000 14.33516687    11
CTC2_L_00222007-03
1 83753U 23677EI  26070.40844907  .00000000  00000+0  00000-0 0  9991
2 83753 100.0000  72.0000 0000000   0.0000 252.0000 14.33516687    12
CTC2_L_00222007-04
1 83754U 23844VT  26070.40844907  .00000000  00000+0  00000-0 0  9998
2 83754 100.0000  72.0000 0000000   0.0000 342.0000 14.33516687    13
CTC2_L_00222008-01
1 83755U 25951M   26070.40844907  .00000000  00000+0  00000-0 0  9990
2 83755 100.0000  84.0000 0000000   0.0000  84.0000 14.33516687    10
CTC2_L_00222008-02
1 83756U 26960EA  26070.40844907  .00000000  00000+0  00000-0 0  9992
2 83756 100.0000  84.0000 0000000   0.0000 174.0000 14.33516687    11
CTC2_L_00222008-03
1 83757U 25509JK  26070.40844907  .00000000  00000+0  00000-0 0  9991
2 83757 100.0000  84.0000 0000000   0.0000 264.0000 14.33516687    12
CTC2_L_00222008-04
1 83758U 26478JZ  26070.40844907  .00000000  00000+0  00000-0 0  9998
2 83758 100.0000  84.0000 0000000   0.0000 354.0000 14.33516687    13
CTC2_L_00222009-01
1 83759U 24282TL  26070.40844907  .00000000  00000+0  00000-0 0  9990
2 83759 100.0000  96.0000 0000000   0.0000  96.0000 14.33516687    10
CTC2_L_00222009-02
1 83760U 22223BU  26070.40844907  .00000000  00000+0  00000-0 0  9995
2 83760 100.0000  96.0000 0000000   0.0000 186.0000 14.33516687    12
CTC2_L_00222009-03
1 83761U 23858LA  26070.40844907  .00000000  00000+0  00000-0 0  9991
2 83761 100.0000  96.0000 0000000   0.0000 276.0000 14.33516687    13
CTC2_L_00222009-04
1 83762U 24770LY  26070.40844907  .00000000  00000+0  00000-0 0  9996
2 83762 100.0000  96.0000 0000000   0.0000   6.0000 14.33516687    15
CTC2_L_00222010-01
1 83763U 25788CH  26070.40844907  .00000000  00000+0  00000-0 0  9997
2 83763 100.0000 108.0000 0000000   0.0000 108.0000 14.33516687    13
CTC2_L_00222010-02
1 83764U 23987RZ  26070.40844907  .00000000  00000+0  00000-0 0  9997
2 83764 100.0000 108.0000 0000000   0.0000 198.0000 14.33516687    13
CTC2_L_00222010-03
1 83765U 25965LO  26070.40844907  .00000000  00000+0  00000-0 0  9996
2 83765 100.0000 108.0000 0000000   0.0000 288.0000 14.33516687    14
CTC2_L_00222010-04
1 83766U 26237M   26070.40844907  .00000000  00000+0  00000-0 0  9990
2 83766 100.0000 108.0000 0000000   0.0000  18.0000 14.33516687    16
CTC2_L_00222011-01
1 83767U 22011GV  26070.40844907  .00000000  00000+0  00000-0 0  9997
2 83767 100.0000 120.0000 0000000   0.0000 120.0000 14.33516687    15
CTC2_L_00222011-02
1 83768U 24469OX  26070.40844907  .00000000  00000+0  00000-0 0  9997
2 83768 100.0000 120.0000 0000000   0.0000 210.0000 14.33516687    16
CTC2_L_00222011-03
1 83769U 26846JH  26070.40844907  .00000000  00000+0  00000-0 0  9999
2 83769 100.0000 120.0000 0000000   0.0000 300.0000 14.33516687    17
CTC2_L_00222011-04
1 83770U 24752EY  26070.40844907  .00000000  00000+0  00000-0 0  9995
2 83770 100.0000 120.0000 0000000   0.0000  30.0000 14.33516687    19
CTC2_L_00222012-01
1 83771U 22566JL  26070.40844907  .00000000  00000+0  00000-0 0  9997
2 83771 100.0000 132.0000 0000000   0.0000 132.0000 14.33516687    16
CTC2_L_00222012-02
1 83772U 25651KR  26070.40844907  .00000000  00000+0  00000-0 0  9996
2 83772 100.0000 132.0000 0000000   0.0000 222.0000 14.33516687    17
CTC2_L_00222012-03
1 83773U 24343VT  26070.40844907  .00000000  00000+0  00000-0 0  9994
2 83773 100.0000 132.0000 0000000   0.0000 312.0000 14.33516687    18
CTC2_L_00222012-04
1 83774U 23378UM  26070.40844907  .00000000  00000+0  00000-0 0  9992
2 83774 100.0000 132.0000 0000000   0.0000  42.0000 14.33516687    19
CTC2_L_00222013-01
1 83775U 23895QV  26070.40844907  .00000000  00000+0  00000-0 0  9997
2 83775 100.0000 144.0000 0000000   0.0000 144.0000 14.33516687    16
CTC2_L_00222013-02
1 83776U 25137JZ  26070.40844907  .00000000  00000+0  00000-0 0  9999
2 83776 100.0000 144.0000 0000000   0.0000 234.0000 14.33516687    17
CTC2_L_00222013-03
1 83777U 22262FO  26070.40844907  .00000000  00000+0  00000-0 0  9996
2 83777 100.0000 144.0000 0000000   0.0000 324.0000 14.33516687    18
CTC2_L_00222013-04
1 83778U 25874FZ  26070.40844907  .00000000  00000+0  00000-0 0  9999
2 83778 100.0000 144.0000 0000000   0.0000  54.0000 14.33516687    19
CTC2_L_00222014-01
1 83779U 25853AH  26070.40844907  .00000000  00000+0  00000-0 0  9997
2 83779 100.0000 156.0000 0000000   0.0000 156.0000 14.33516687    16
CTC2_L_00222014-02
1 83780U 26294PD  26070.40844907  .00000000  00000+0  00000-0 0  9999
2 83780 100.0000 156.0000 0000000   0.0000 246.0000 14.33516687    18
CTC2_L_00222014-03
1 83781U 23596SE  26070.40844907  .00000000  00000+0  00000-0 0  9992
2 83781 100.0000 156.0000 0000000   0.0000 336.0000 14.33516687    19
CTC2_L_00222014-04
1 83782U 26519BM  26070.40844907  .00000000  00000+0  00000-0 0  9991
2 83782 100.0000 156.0000 0000000   0.0000  66.0000 14.33516687    10
CTC2_L_00222015-01
1 83783U 26639LJ  26070.40844907  .00000000  00000+0  00000-0 0  9995
2 83783 100.0000 168.0000 0000000   0.0000 168.0000 14.33516687    17
CTC2_L_00222015-02
1 83784U 26810FS  26070.40844907  .00000000  00000+0  00000-0 0  9997
2 83784 100.0000 168.0000 0000000   0.0000 258.0000 14.33516687    18
CTC2_L_00222015-03
1 83785U 25983MJ  26070.40844907  .00000000  00000+0  00000-0 0  9998
2 83785 100.0000 168.0000 0000000   0.0000 348.0000 14.33516687    19
CTC2_L_00222015-04
1 83786U 24165TF  26070.40844907  .00000000  00000+0  00000-0 0  9990
2 83786 100.0000 168.0000 0000000   0.0000  78.0000 14.33516687    10
CTC2_L_00222016-01
1 83787U 23852WY  26070.40844907  .00000000  00000+0  00000-0 0  9993
2 83787 100.0000 180.0000 0000000   0.0000 180.0000 14.33516687    19
CTC2_L_00222016-02
1 83788U 24837JR  26070.40844907  .00000000  00000+0  00000-0 0  9998
2 83788 100.0000 180.0000 0000000   0.0000 270.0000 14.33516687    10
